SL-16 R/B               
1 22803U 93059B   26077.15839871  .00000238  00000+0  14164-3 0  9996
2 22803  70.9931 353.2689 0018042 204.1534 155.8746 14.17232904680739
ARIANE 40 R/B           
1 22830U 93061H   26077.14805241  .00000204  00000+0  90624-4 0  9991
2 22830  98.4899 145.8681 0009597 257.1109 102.9003 14.32865439695316
COSMOS 2278             
1 23087U 94023A   26077.29670950 -.00000147  00000+0 -52164-4 0  9993
2 23087  71.0543 157.0923 0008638 358.1622   1.9467 14.14379107646023
SL-16 R/B               
1 23088U 94023B   26077.26863153 -.00000041  00000+0  33904-5 0  9994
2 23088  70.9991  52.8687 0005546 277.1994  82.8498 14.15010023647309
SL-16 R/B               
1 23343U 94074B   26077.11376910  .00000453  00000+0  67333-4 0  9996
2 23343  97.7097 107.5901 0006436 181.1782 246.1506 14.79417818688495
SL-16 R/B               
1 23405U 94077B   26077.10558801  .00000316  00000+0  18580-3 0  9995
2 23405  70.9850 334.7852 0002605 201.9195 158.1817 14.15564716617428
ARIANE 40+ R/B          
1 23561U 95021B   26077.15491863  .00000270  00000+0  10011-3 0  9997
2 23561  98.4481 148.5222 0007903 114.3578 299.7811 14.39778546620464
SL-16 R/B               
1 23705U 95058B   26076.97164307  .00000116  00000+0  83495-4 0  9992
2 23705  71.0222 162.8684 0010410 110.6590 249.5651 14.15500231569022
SL-16 R/B               
1 24298U 96051B   26077.31043618  .00000086  00000+0  73253-4 0  9991
2 24298  70.7599 156.9934 0014349 134.5663 225.6631 14.12417924522863
ORBVIEW 2 (SEASTAR)     
1 24883U 97037A   26077.06092611  .00000226  00000+0  94645-4 0  9999
2 24883  98.8581 241.5951 0002861  54.6831 305.4620 14.35500811509672
SL-16 R/B               
1 25400U 98043G   26077.29151790  .00000052  00000+0  40750-4 0  9997
2 25400  98.8269  30.7166 0009765 356.0986   4.0116 14.26051767440214
SL-16 R/B               
1 25407U 98045B   26076.97850513  .00000173  00000+0  11139-3 0  9991
2 25407  71.0120 164.1442 0007301 355.0611   5.0439 14.16194522428274
ISS (ZARYA)             
1 25544U 98067A   26077.16145852  .00007208  00000+0  14196-3 0  9994
2 25544  51.6338  30.4771 0006242 203.4545 156.6159 15.48351952557640
CZ-4B R/B               
1 25732U 99025C   26077.13145479  .00000045  00000+0  42713-4 0  9999
2 25732  98.6608 121.2124 0036328 321.9976 100.1841 14.18267072389362
OKEAN-O                 
1 25860U 99039A   26077.16869735  .00000648  00000+0  91827-4 0  9996
2 25860  97.9423 136.9733 0001017  74.8261 285.3063 14.80349343435644
SL-16 R/B               
1 25861U 99039B   26077.14058399  .00000554  00000+0  76991-4 0  9992
2 25861  97.9946 136.2240 0013811 226.3634 133.6434 14.81743323438113
DELTA 2 R/B             
1 25876U 99041E   26076.51204994  .00000799  00000+0  16765-3 0  9998
2 25876  51.7612 270.0340 0502558  11.5057 349.6876 14.11860091364133
