[{"OBJECT_NAME":"SL-16 R/B","OBJECT_ID":"1993-059B","EPOCH":"2026-03-18T03:48:05.648544","MEAN_MOTION":14.17232904,"ECCENTRICITY":0.0018042,"INCLINATION":70.9931,"RA_OF_ASC_NODE":353.2689,"ARG_OF_PERICENTER":204.1534,"MEAN_ANOMALY":155.8746,"EPHEMERIS_TYPE":0,"CLASSIFICATION_TYPE":"U","NORAD_CAT_ID":22803,"ELEMENT_SET_NO":999,"REV_AT_EPOCH":68073,"BSTAR":0.00014164242,"MEAN_MOTION_DOT":2.38e-6,"MEAN_MOTION_DDOT":0},{"OBJECT_NAME":"ARIANE 40 R/B","OBJECT_ID":"1993-061H","EPOCH":"2026-03-18T03:33:11.728224","MEAN_MOTION":14.32865439,"ECCENTRICITY":0.00095974,"INCLINATION":98.4899,"RA_OF_ASC_NODE":145.8681,"ARG_OF_PERICENTER":257.1109,"MEAN_ANOMALY":102.9003,"EPHEMERIS_TYPE":0,"CLASSIFICATION_TYPE":"U","NORAD_CAT_ID":22830,"ELEMENT_SET_NO":999,"REV_AT_EPOCH":69531,"BSTAR":9.0623645e-5,"MEAN_MOTION_DOT":2.04e-6,"MEAN_MOTION_DDOT":0},{"OBJECT_NAME":"COSMOS 2278","OBJECT_ID":"1994-023A","EPOCH":"2026-03-18T07:07:15.700800","MEAN_MOTION":14.14379107,"ECCENTRICITY":0.00086389,"INCLINATION":71.0543,"RA_OF_ASC_NODE":157.0923,"ARG_OF_PERICENTER":358.1622,"MEAN_ANOMALY":1.9467,"EPHEMERIS_TYPE":0,"CLASSIFICATION_TYPE":"U","NORAD_CAT_ID":23087,"ELEMENT_SET_NO":999,"REV_AT_EPOCH":64602,"BSTAR":-5.2163682e-5,"MEAN_MOTION_DOT":-1.47e-6,"MEAN_MOTION_DDOT":0},{"OBJECT_NAME":"SL-16 R/B","OBJECT_ID":"1994-023B","EPOCH":"2026-03-18T06:26:49.764192","MEAN_MOTION":14.15010023,"ECCENTRICITY":0.00055462,"INCLINATION":70.9991,"RA_OF_ASC_NODE":52.8687,"ARG_OF_PERICENTER":277.1994,"MEAN_ANOMALY":82.8498,"EPHEMERIS_TYPE":0,"CLASSIFICATION_TYPE":"U","NORAD_CAT_ID":23088,"ELEMENT_SET_NO":999,"REV_AT_EPOCH":64730,"BSTAR":3.39042e-6,"MEAN_MOTION_DOT":-4.1e-7,"MEAN_MOTION_DDOT":0},{"OBJECT_NAME":"SL-16 R/B","OBJECT_ID":"1994-074B","EPOCH":"2026-03-18T02:43:49.650240","MEAN_MOTION":14.79417818,"ECCENTRICITY":0.00064361,"INCLINATION":97.7097,"RA_OF_ASC_NODE":107.5901,"ARG_OF_PERICENTER":181.1782,"MEAN_ANOMALY":246.1506,"EPHEMERIS_TYPE":0,"CLASSIFICATION_TYPE":"U","NORAD_CAT_ID":23343,"ELEMENT_SET_NO":999,"REV_AT_EPOCH":68849,"BSTAR":6.7332596e-5,"MEAN_MOTION_DOT":4.53e-6,"MEAN_MOTION_DDOT":0},{"OBJECT_NAME":"SL-16 R/B","OBJECT_ID":"1994-077B","EPOCH":"2026-03-18T02:32:02.804064","MEAN_MOTION":14.15564716,"ECCENTRICITY":0.00026057,"INCLINATION":70.985,"RA_OF_ASC_NODE":334.7852,"ARG_OF_PERICENTER":201.9195,"MEAN_ANOMALY":158.1817,"EPHEMERIS_TYPE":0,"CLASSIFICATION_TYPE":"U","NORAD_CAT_ID":23405,"ELEMENT_SET_NO":999,"REV_AT_EPOCH":61742,"BSTAR":0.00018580269,"MEAN_MOTION_DOT":3.16e-6,"MEAN_MOTION_DDOT":0},{"OBJECT_NAME":"ARIANE 40+ R/B","OBJECT_ID":"1995-021B","EPOCH":"2026-03-18T03:43:04.969632","MEAN_MOTION":14.39778546,"ECCENTRICITY":0.00079039,"INCLINATION":98.4481,"RA_OF_ASC_NODE":148.5222,"ARG_OF_PERICENTER":114.3578,"MEAN_ANOMALY":299.7811,"EPHEMERIS_TYPE":0,"CLASSIFICATION_TYPE":"U","NORAD_CAT_ID":23561,"ELEMENT_SET_NO":999,"REV_AT_EPOCH":62046,"BSTAR":0.00010010753,"MEAN_MOTION_DOT":2.7e-6,"MEAN_MOTION_DDOT":0},{"OBJECT_NAME":"SL-16 R/B","OBJECT_ID":"1995-058B","EPOCH":"2026-03-17T23:19:09.961248","MEAN_MOTION":14.15500231,"ECCENTRICITY":0.00104104,"INCLINATION":71.0222,"RA_OF_ASC_NODE":162.8684,"ARG_OF_PERICENTER":110.659,"MEAN_ANOMALY":249.5651,"EPHEMERIS_TYPE":0,"CLASSIFICATION_TYPE":"U","NORAD_CAT_ID":23705,"ELEMENT_SET_NO":999,"REV_AT_EPOCH":56902,"BSTAR":8.3494535e-5,"MEAN_MOTION_DOT":1.16e-6,"MEAN_MOTION_DDOT":0},{"OBJECT_NAME":"SL-16 R/B","OBJECT_ID":"1996-051B","EPOCH":"2026-03-18T07:27:01.685952","MEAN_MOTION":14.12417924,"ECCENTRICITY":0.00143497,"INCLINATION":70.7599,"RA_OF_ASC_NODE":156.9934,"ARG_OF_PERICENTER":134.5663,"MEAN_ANOMALY":225.6631,"EPHEMERIS_TYPE":0,"CLASSIFICATION_TYPE":"U","NORAD_CAT_ID":24298,"ELEMENT_SET_NO":999,"REV_AT_EPOCH":52286,"BSTAR":7.3253334e-5,"MEAN_MOTION_DOT":8.6e-7,"MEAN_MOTION_DDOT":0},{"OBJECT_NAME":"ORBVIEW 2 (SEASTAR)","OBJECT_ID":"1997-037A","EPOCH":"2026-03-18T01:27:44.015904","MEAN_MOTION":14.35500811,"ECCENTRICITY":0.00028615,"INCLINATION":98.8581,"RA_OF_ASC_NODE":241.5951,"ARG_OF_PERICENTER":54.6831,"MEAN_ANOMALY":305.462,"EPHEMERIS_TYPE":0,"CLASSIFICATION_TYPE":"U","NORAD_CAT_ID":24883,"ELEMENT_SET_NO":999,"REV_AT_EPOCH":50967,"BSTAR":9.4644973e-5,"MEAN_MOTION_DOT":2.26e-6,"MEAN_MOTION_DDOT":0},{"OBJECT_NAME":"SL-16 R/B","OBJECT_ID":"1998-043G","EPOCH":"2026-03-18T06:59:47.146560","MEAN_MOTION":14.26051767,"ECCENTRICITY":0.00097655,"INCLINATION":98.8269,"RA_OF_ASC_NODE":30.7166,"ARG_OF_PERICENTER":356.0986,"MEAN_ANOMALY":4.0116,"EPHEMERIS_TYPE":0,"CLASSIFICATION_TYPE":"U","NORAD_CAT_ID":25400,"ELEMENT_SET_NO":999,"REV_AT_EPOCH":44021,"BSTAR":4.0750273e-5,"MEAN_MOTION_DOT":5.2e-7,"MEAN_MOTION_DDOT":0},{"OBJECT_NAME":"SL-16 R/B","OBJECT_ID":"1998-045B","EPOCH":"2026-03-17T23:29:02.843232","MEAN_MOTION":14.16194522,"ECCENTRICITY":0.0007301,"INCLINATION":71.012,"RA_OF_ASC_NODE":164.1442,"ARG_OF_PERICENTER":355.0611,"MEAN_ANOMALY":5.0439,"EPHEMERIS_TYPE":0,"CLASSIFICATION_TYPE":"U","NORAD_CAT_ID":25407,"ELEMENT_SET_NO":999,"REV_AT_EPOCH":42827,"BSTAR":0.00011139165,"MEAN_MOTION_DOT":1.73e-6,"MEAN_MOTION_DDOT":0},{"OBJECT_NAME":"ISS (ZARYA)","OBJECT_ID":"1998-067A","EPOCH":"2026-03-18T03:52:30.016128","MEAN_MOTION":15.48351952,"ECCENTRICITY":0.00062422,"INCLINATION":51.6338,"RA_OF_ASC_NODE":30.4771,"ARG_OF_PERICENTER":203.4545,"MEAN_ANOMALY":156.6159,"EPHEMERIS_TYPE":0,"CLASSIFICATION_TYPE":"U","NORAD_CAT_ID":25544,"ELEMENT_SET_NO":999,"REV_AT_EPOCH":55764,"BSTAR":0.00014196061,"MEAN_MOTION_DOT":7.208e-5,"MEAN_MOTION_DDOT":0},{"OBJECT_NAME":"CZ-4B R/B","OBJECT_ID":"1999-025C","EPOCH":"2026-03-18T03:09:17.693856","MEAN_MOTION":14.18267072,"ECCENTRICITY":0.00363283,"INCLINATION":98.6608,"RA_OF_ASC_NODE":121.2124,"ARG_OF_PERICENTER":321.9976,"MEAN_ANOMALY":100.1841,"EPHEMERIS_TYPE":0,"CLASSIFICATION_TYPE":"U","NORAD_CAT_ID":25732,"ELEMENT_SET_NO":999,"REV_AT_EPOCH":38936,"BSTAR":4.2713326e-5,"MEAN_MOTION_DOT":4.5e-7,"MEAN_MOTION_DDOT":0},{"OBJECT_NAME":"OKEAN-O","OBJECT_ID":"1999-039A","EPOCH":"2026-03-18T04:02:55.451040","MEAN_MOTION":14.80349343,"ECCENTRICITY":0.00010174,"INCLINATION":97.9423,"RA_OF_ASC_NODE":136.9733,"ARG_OF_PERICENTER":74.8261,"MEAN_ANOMALY":285.3063,"EPHEMERIS_TYPE":0,"CLASSIFICATION_TYPE":"U","NORAD_CAT_ID":25860,"ELEMENT_SET_NO":999,"REV_AT_EPOCH":43564,"BSTAR":9.1827169e-5,"MEAN_MOTION_DOT":6.48e-6,"MEAN_MOTION_DDOT":0},{"OBJECT_NAME":"SL-16 R/B","OBJECT_ID":"1999-039B","EPOCH":"2026-03-18T03:22:26.456736","MEAN_MOTION":14.81743323,"ECCENTRICITY":0.00138111,"INCLINATION":97.9946,"RA_OF_ASC_NODE":136.224,"ARG_OF_PERICENTER":226.3634,"MEAN_ANOMALY":133.6434,"EPHEMERIS_TYPE":0,"CLASSIFICATION_TYPE":"U","NORAD_CAT_ID":25861,"ELEMENT_SET_NO":999,"REV_AT_EPOCH":43811,"BSTAR":7.6991032e-5,"MEAN_MOTION_DOT":5.54e-6,"MEAN_MOTION_DDOT":0},{"OBJECT_NAME":"DELTA 2 R/B","OBJECT_ID":"1999-041E","EPOCH":"2026-03-17T12:17:21.114816","MEAN_MOTION":14.11860091,"ECCENTRICITY":0.05025583,"INCLINATION":51.7612,"RA_OF_ASC_NODE":270.034,"ARG_OF_PERICENTER":11.5057,"MEAN_ANOMALY":349.6876,"EPHEMERIS_TYPE":0,"CLASSIFICATION_TYPE":"U","NORAD_CAT_ID":25876,"ELEMENT_SET_NO":999,"REV_AT_EPOCH":36413,"BSTAR":0.00016765064,"MEAN_MOTION_DOT":7.99e-6,"MEAN_MOTION_DDOT":0}]
